CCSDS_OMM_VERS = 2.0
CREATION_DATE  = 
ORIGINATOR     = 

OBJECT_NAME    = CZ-2F DEB
OBJECT_ID      = 2026-024C
CENTER_NAME    = EARTH
REF_FRAME      = TEME
TIME_SYSTEM    = UTC
MEAN_ELEMENT_THEORY = SGP/SGP4

EPOCH          = 2026-02-10T14:38:46.616064
MEAN_MOTION    = 15.60078738
ECCENTRICITY   = .0277108
INCLINATION    = 49.9114
RA_OF_ASC_NODE = 149.7008
ARG_OF_PERICENTER = 168.4389
MEAN_ANOMALY   = 192.3122

EPHEMERIS_TYPE = 0
CLASSIFICATION_TYPE = U
NORAD_CAT_ID   = 67691
ELEMENT_SET_NO = 999
REV_AT_EPOCH   = 53
BSTAR          = .94375358E-3
MEAN_MOTION_DOT = .628816E-2
MEAN_MOTION_DDOT = .10229964E-4

CCSDS_OMM_VERS = 2.0
CREATION_DATE  = 
ORIGINATOR     = 

OBJECT_NAME    = CZ-2F DEB
OBJECT_ID      = 2026-024D
CENTER_NAME    = EARTH
REF_FRAME      = TEME
TIME_SYSTEM    = UTC
MEAN_ELEMENT_THEORY = SGP/SGP4

EPOCH          = 2026-02-09T12:20:49.161696
MEAN_MOTION    = 15.62132248
ECCENTRICITY   = .03476599
INCLINATION    = 50.3761
RA_OF_ASC_NODE = 155.8636
ARG_OF_PERICENTER = 202.7642
MEAN_ANOMALY   = 155.7595

EPHEMERIS_TYPE = 0
CLASSIFICATION_TYPE = U
NORAD_CAT_ID   = 67692
ELEMENT_SET_NO = 999
REV_AT_EPOCH   = 36
BSTAR          = .16462978E-3
MEAN_MOTION_DOT = .1037071E-1
MEAN_MOTION_DDOT = .10166112E-4

CCSDS_OMM_VERS = 2.0
CREATION_DATE  = 
ORIGINATOR     = 

OBJECT_NAME    = CZ-2F DEB
OBJECT_ID      = 2026-024E
CENTER_NAME    = EARTH
REF_FRAME      = TEME
TIME_SYSTEM    = UTC
MEAN_ELEMENT_THEORY = SGP/SGP4

EPOCH          = 2026-02-10T17:07:42.557664
MEAN_MOTION    = 15.13221423
ECCENTRICITY   = .02730626
INCLINATION    = 50.3168
RA_OF_ASC_NODE = 150.1526
ARG_OF_PERICENTER = 174.0598
MEAN_ANOMALY   = 186.3707

EPHEMERIS_TYPE = 0
CLASSIFICATION_TYPE = U
NORAD_CAT_ID   = 67718
ELEMENT_SET_NO = 999
REV_AT_EPOCH   = 53
BSTAR          = .52885541E-2
MEAN_MOTION_DOT = .25151E-2
MEAN_MOTION_DDOT = 0

CCSDS_OMM_VERS = 2.0
CREATION_DATE  = 
ORIGINATOR     = 

OBJECT_NAME    = CZ-2F DEB
OBJECT_ID      = 2026-024G
CENTER_NAME    = EARTH
REF_FRAME      = TEME
TIME_SYSTEM    = UTC
MEAN_ELEMENT_THEORY = SGP/SGP4

EPOCH          = 2026-02-09T13:23:37.087296
MEAN_MOTION    = 14.91513523
ECCENTRICITY   = .0356521
INCLINATION    = 49.8307
RA_OF_ASC_NODE = 156.3970
ARG_OF_PERICENTER = 155.6766
MEAN_ANOMALY   = 206.1473

EPHEMERIS_TYPE = 0
CLASSIFICATION_TYPE = U
NORAD_CAT_ID   = 67720
ELEMENT_SET_NO = 999
REV_AT_EPOCH   = 34
BSTAR          = .51552E-2
MEAN_MOTION_DOT = .189924E-2
MEAN_MOTION_DDOT = 0

