CZ-2F DEB               
1 67691U 26024C   26041.61026176  .00628816  10230-4  94375-3 0  9997
2 67691  49.9114 149.7008 0277108 168.4389 192.3122 15.60078738   535
CZ-2F DEB               
1 67692U 26024D   26040.51445789  .01037071  10166-4  16463-3 0  9999
2 67692  50.3761 155.8636 0347659 202.7642 155.7595 15.62132248   365
CZ-2F DEB               
1 67718U 26024E   26041.71368701  .00251510  00000+0  52886-2 0  9993
2 67718  50.3168 150.1526 0273062 174.0598 186.3707 15.13221423   532
CZ-2F DEB               
1 67720U 26024G   26040.55806814  .00189924  00000+0  51552-2 0  9997
2 67720  49.8307 156.3970 0356521 155.6766 206.1473 14.91513523   348
